SES-2                   
1 37809U 11049A   26065.56431568 -.00000200  00000+0  00000+0 0  9990
2 37809   0.0247  75.9088 0002904 271.4563 293.0556  1.00271816 52937
QUETZSAT 1              
1 37826U 11054A   26065.56630903 -.00000246  00000+0  00000+0 0  9999
2 37826   0.0489 292.9234 0002846  66.9972 291.2306  1.00280367 48843
SES-4                   
1 38087U 12007A   26065.43933632 -.00000173  00000+0  00000+0 0  9998
2 38087   0.0353  65.8553 0002193 272.1207 322.3456  1.00270086 51192
SES-5                   
1 38652U 12036A   26065.22597522  .00000028  00000+0  00000+0 0  9997
2 38652   0.0597 310.4117 0001901  31.4449 268.4077  1.00271218 43429
ASTRA 2F                
1 38778U 12051A   26065.58710912  .00000146  00000+0  00000+0 0  9993
2 38778   0.0920 260.0553 0002290  10.6931 133.1353  1.00276624 40102
SES-6                   
1 39172U 13026A   26065.78748334 -.00000265  00000+0  00000+0 0  9999
2 39172   0.0608 290.5993 0001860  68.2463  48.6292  1.00271559 46695
O3B FM5                 
1 39188U 13031A   26065.49628795 -.00000026  00000+0  00000+0 0  9993
2 39188   0.0980  13.4545 0003331 322.6467  23.8782  5.00116473231890
O3B FM4                 
1 39189U 13031B   26065.21566536 -.00000026  00000+0  00000+0 0  9998
2 39189   0.0553 345.1172 0005086   9.2557   5.6159  5.00115247231899
O3B FM2                 
1 39190U 13031C   26065.28134640 -.00000026  00000+0  00000+0 0  9994
2 39190   0.0562 338.9068 0002828   5.1857  15.8932  5.00116014231967
O3B PFM                 
1 39191U 13031D   26065.09556941 -.00000026  00000+0  00000+0 0  9996
2 39191   0.0668   7.2787 0005147 352.3292   0.3862  5.00115906231517
ASTRA 2E                
1 39285U 13056A   26065.80117674  .00000147  00000+0  00000+0 0  9995
2 39285   0.0732  34.8304 0002179 306.1260 140.4556  1.00273237 45391
SES-8                   
1 39460U 13071A   26065.81435012 -.00000273  00000+0  00000+0 0  9998
2 39460   0.0521 270.9904 0001763 104.7767 176.9215  1.00272372 43419
ASTRA 5B                
1 39617U 14011B   26065.80022338  .00000134  00000+0  00000+0 0  9994
2 39617   0.0860 301.0296 0004015  28.7722 146.2633  1.00272325 43645
O3B FM3                 
1 40079U 14038A   26065.76186379 -.00000026  00000+0  00000+0 0  9999
2 40079   0.0530 353.4216 0000655  58.0051 308.5741  5.00115651207910
O3B FM7                 
1 40080U 14038B   26061.31035470 -.00000029  00000+0  00000+0 0  9996
2 40080   0.0588 348.9474 0004488 339.4059  31.6123  5.00115622212532
O3B FM6                 
1 40081U 14038C   26065.73495754 -.00000026  00000+0  00000+0 0  9999
2 40081   0.0549 351.2792 0002664 351.0679  17.6384  5.00115757212703
O3B FM8                 
1 40082U 14038D   26063.58947926 -.00000027  00000+0  00000+0 0  9995
2 40082   0.0558 350.6431 0002658 354.8269  14.5160  5.00115977212719
